{
"type": "FeatureCollection",
"name": "COMP_PUNJAB_THQ",
"crs": { "type": "name", "properties": { "name": "urn:ogc:def:crs:OGC:1.3:CRS84" } },
"features": [
{ "type": "Feature", "properties": { "OBJECTID": 1, "FullName": "Tehsil Headquarter Hospital Sharaqpur, Sharaqpur, Sheikhupura", "Latitude": 31.457339, "Longitude": 74.078761, "DistrictNa": "Sheikhupura", "TehsilName": "Sharaqpur", "HFTypeName": "Tehsil Headquarter Hospital", "Category": "THQ", "Remarks": null }, "geometry": { "type": "Point", "coordinates": [ 74.078761000319957, 31.457338999595208 ] } },
{ "type": "Feature", "properties": { "OBJECTID": 2, "FullName": "Tehsil Headquarter Hospital, Ferozewala, Sheikhupura", "Latitude": 31.65883779, "Longitude": 74.28439417, "DistrictNa": "Sheikhupura", "TehsilName": "Ferozewala", "HFTypeName": "Tehsil Headquarter Hospital", "Category": "THQ", "Remarks": null }, "geometry": { "type": "Point", "coordinates": [ 74.28439416975516, 31.658837790431733 ] } },
{ "type": "Feature", "properties": { "OBJECTID": 3, "FullName": "Tehsil Headquarter Hospital, Safdar Abad, Sheikhupura", "Latitude": 31.72780631, "Longitude": 73.57149034, "DistrictNa": "Sheikhupura", "TehsilName": "Safdar Abad", "HFTypeName": "Tehsil Headquarter Hospital", "Category": "THQ", "Remarks": null }, "geometry": { "type": "Point", "coordinates": [ 73.571490339607521, 31.727806309813388 ] } },
{ "type": "Feature", "properties": { "OBJECTID": 4, "FullName": "Tehsil Headquarter Hospital, Muridkey, Sheikhupura", "Latitude": 31.787202, "Longitude": 74.25759, "DistrictNa": "Sheikhupura", "TehsilName": "Muridkey", "HFTypeName": "Tehsil Headquarter Hospital", "Category": "THQ", "Remarks": null }, "geometry": { "type": "Point", "coordinates": [ 74.257590000278356, 31.787202000172215 ] } },
{ "type": "Feature", "properties": { "OBJECTID": 5, "FullName": "Tehsil Headquarter Hospital, Bhowana, Chiniot", "Latitude": 31.555443, "Longitude": 72.677306, "DistrictNa": "Chiniot", "TehsilName": "Bhowana", "HFTypeName": "Tehsil Headquarter Hospital", "Category": "THQ", "Remarks": null }, "geometry": { "type": "Point", "coordinates": [ 72.677305999872033, 31.555443000094442 ] } },
{ "type": "Feature", "properties": { "OBJECTID": 6, "FullName": "Tehsil Headquarter Hospital, Lalian, Chiniot", "Latitude": 31.823397, "Longitude": 72.807234, "DistrictNa": "Chiniot", "TehsilName": "Lalian", "HFTypeName": "Tehsil Headquarter Hospital", "Category": "THQ", "Remarks": null }, "geometry": { "type": "Point", "coordinates": [ 72.807234000248968, 31.823397000171497 ] } },
{ "type": "Feature", "properties": { "OBJECTID": 7, "FullName": "Tehsil Headquarter Hospital Ahmad Pur Sial, Ahmadpur Sial, Jhang", "Latitude": 30.68702671, "Longitude": 71.76228718, "DistrictNa": "Jhang", "TehsilName": "Ahmadpur Sial", "HFTypeName": "Tehsil Headquarter Hospital", "Category": "THQ", "Remarks": null }, "geometry": { "type": "Point", "coordinates": [ 71.7622871796097, 30.687026710114651 ] } },
{ "type": "Feature", "properties": { "OBJECTID": 8, "FullName": "Tehsil Headquarter Hospital, Shorkot, Jhang", "Latitude": 30.820752, "Longitude": 72.070601, "DistrictNa": "Jhang", "TehsilName": "Shorkot", "HFTypeName": "Tehsil Headquarter Hospital", "Category": "THQ", "Remarks": null }, "geometry": { "type": "Point", "coordinates": [ 72.070601000335955, 30.820751999804997 ] } },
{ "type": "Feature", "properties": { "OBJECTID": 9, "FullName": "Tehsil Headquarter Hospital, 18-Hazari, Jhang", "Latitude": 31.18414134, "Longitude": 72.07181301, "DistrictNa": "Jhang", "TehsilName": "18-Hazari", "HFTypeName": "Tehsil Headquarter Hospital", "Category": "THQ", "Remarks": null }, "geometry": { "type": "Point", "coordinates": [ 72.071813010362177, 31.184141339551218 ] } },
{ "type": "Feature", "properties": { "OBJECTID": 10, "FullName": "HH Maj. Gen. Sheikh Al Mur Bin Maktoum Bin Juma Al Maltoum, Gynae Hospital Ghulab Wala, 18-Hazari, Jhang", "Latitude": 31.15151261, "Longitude": 71.90730045, "DistrictNa": "Jhang", "TehsilName": "18-Hazari", "HFTypeName": "Tehsil Headquarter Hospital", "Category": "THQ", "Remarks": null }, "geometry": { "type": "Point", "coordinates": [ 71.907300450255605, 31.151512610118914 ] } },
{ "type": "Feature", "properties": { "OBJECTID": 11, "FullName": "Tehsil Headquarter Level, Government City Hospital, Jhang City, Jhang", "Latitude": 31.30446257, "Longitude": 72.32182135, "DistrictNa": "Jhang", "TehsilName": "Jhang", "HFTypeName": "Tehsil Headquarter Hospital", "Category": "THQ", "Remarks": null }, "geometry": { "type": "Point", "coordinates": [ 72.321821350175242, 31.304462569591976 ] } },
{ "type": "Feature", "properties": { "OBJECTID": 12, "FullName": "Tehsil Headquarter Hospital , Chichawatni, Sahiwal", "Latitude": 30.524864, "Longitude": 72.69435, "DistrictNa": "Sahiwal", "TehsilName": "Chichawatni", "HFTypeName": "Tehsil Headquarter Hospital", "Category": "THQ", "Remarks": null }, "geometry": { "type": "Point", "coordinates": [ 72.694349999852648, 30.524864000273453 ] } },
{ "type": "Feature", "properties": { "OBJECTID": 13, "FullName": "Tehsil Headquarter Hospital, Shah Kot, Nankana Sahib", "Latitude": 31.578185, "Longitude": 73.48658, "DistrictNa": "Nankana Sahib", "TehsilName": "Shah Kot", "HFTypeName": "Tehsil Headquarter Hospital", "Category": "THQ", "Remarks": null }, "geometry": { "type": "Point", "coordinates": [ 73.486580037438841, 31.578185235860019 ] } },
{ "type": "Feature", "properties": { "OBJECTID": 14, "FullName": "Tehsil Headquarter Hospital, Sangla Hill, Nankana Sahib", "Latitude": 31.71803, "Longitude": 73.37337, "DistrictNa": "Nankana Sahib", "TehsilName": "Sangla Hill", "HFTypeName": "Tehsil Headquarter Hospital", "Category": "THQ", "Remarks": null }, "geometry": { "type": "Point", "coordinates": [ 73.373370011217105, 31.718030319443756 ] } },
{ "type": "Feature", "properties": { "OBJECTID": 15, "FullName": "Tehsil Headquarter Hospital, Arifwala, Pakpattan", "Latitude": 30.284527, "Longitude": 73.072295, "DistrictNa": "Pakpattan", "TehsilName": "Arifwala", "HFTypeName": "Tehsil Headquarter Hospital", "Category": "THQ", "Remarks": null }, "geometry": { "type": "Point", "coordinates": [ 73.072295000014321, 30.28452700032085 ] } },
{ "type": "Feature", "properties": { "OBJECTID": 16, "FullName": "Tehsil Headquarter Hospital Renala Khurd, Renala Khurd, Okara", "Latitude": 30.872721, "Longitude": 73.589298, "DistrictNa": "Okara", "TehsilName": "Renala Khurd", "HFTypeName": "Tehsil Headquarter Hospital", "Category": "THQ", "Remarks": null }, "geometry": { "type": "Point", "coordinates": [ 73.589297999802909, 30.87272099967447 ] } },
{ "type": "Feature", "properties": { "OBJECTID": 17, "FullName": "Tehsil Headquarter Hospital , Depal Pur, Okara", "Latitude": 30.674569, "Longitude": 73.666196, "DistrictNa": "Okara", "TehsilName": "Depal Pur", "HFTypeName": "Tehsil Headquarter Hospital", "Category": "THQ", "Remarks": null }, "geometry": { "type": "Point", "coordinates": [ 73.666195999945501, 30.674568999859503 ] } },
{ "type": "Feature", "properties": { "OBJECTID": 18, "FullName": "Tehsil Headquarter Hospital, Haveli Lakha, Depal Pur, Okara", "Latitude": 30.450457, "Longitude": 73.682209, "DistrictNa": "Okara", "TehsilName": "Depal Pur", "HFTypeName": "Tehsil Headquarter Hospital", "Category": "THQ", "Remarks": null }, "geometry": { "type": "Point", "coordinates": [ 73.682209000045361, 30.450456999890662 ] } },
{ "type": "Feature", "properties": { "OBJECTID": 19, "FullName": "Tehsil Headquarter Hospital, Samundri, Faisalabad", "Latitude": 31.060554, "Longitude": 72.955284, "DistrictNa": "Faisalabad", "TehsilName": "Samundri", "HFTypeName": "Tehsil Headquarter Hospital", "Category": "THQ", "Remarks": null }, "geometry": { "type": "Point", "coordinates": [ 72.955283999956691, 31.060554000266961 ] } },
{ "type": "Feature", "properties": { "OBJECTID": 20, "FullName": "Tehsil Headquarter Hospital, Jaranwala, Faisalabad", "Latitude": 31.340559684700001, "Longitude": 73.424170132699999, "DistrictNa": "Faisalabad", "TehsilName": "Jaranwala", "HFTypeName": "Tehsil Headquarter Hospital", "Category": "THQ", "Remarks": null }, "geometry": { "type": "Point", "coordinates": [ 73.424170132545612, 31.34055968468175 ] } },
{ "type": "Feature", "properties": { "OBJECTID": 21, "FullName": "60 Bedded Hospital, Khurrianwala, Jaranwala, Faisalabad", "Latitude": 31.492990736300001, "Longitude": 73.2685921777, "DistrictNa": "Faisalabad", "TehsilName": "Jaranwala", "HFTypeName": "Tehsil Headquarter Hospital", "Category": "THQ", "Remarks": null }, "geometry": { "type": "Point", "coordinates": [ 73.268592177786843, 31.492990736233537 ] } },
{ "type": "Feature", "properties": { "OBJECTID": 22, "FullName": "Tehsil Headquarter Hospital, Tandlianwala, Faisalabad", "Latitude": 31.034284659800001, "Longitude": 73.130833304099994, "DistrictNa": "Faisalabad", "TehsilName": "Tandlianwala", "HFTypeName": "Tehsil Headquarter Hospital", "Category": "THQ", "Remarks": null }, "geometry": { "type": "Point", "coordinates": [ 73.130833303714041, 31.034284659409536 ] } },
{ "type": "Feature", "properties": { "OBJECTID": 23, "FullName": "Tehsil Headquarter Hospital, Chak Jhumra, Faisalabad", "Latitude": 31.565586615699999, "Longitude": 73.188069252399998, "DistrictNa": "Faisalabad", "TehsilName": "Chak Jhumra", "HFTypeName": "Tehsil Headquarter Hospital", "Category": "THQ", "Remarks": null }, "geometry": { "type": "Point", "coordinates": [ 73.188069252394143, 31.565586615330062 ] } },
{ "type": "Feature", "properties": { "OBJECTID": 24, "FullName": "Government Eye Cum General Hospital, Gojra, T.T Singh", "Latitude": 31.156503, "Longitude": 72.665433, "DistrictNa": "T.T Singh", "TehsilName": "Gojra", "HFTypeName": "Tehsil Headquarter Hospital", "Category": "THQ", "Remarks": null }, "geometry": { "type": "Point", "coordinates": [ 72.665433000032976, 31.156503000313251 ] } },
{ "type": "Feature", "properties": { "OBJECTID": 25, "FullName": "Tehsil Headquarter Hospital, Kamalia, T.T Singh", "Latitude": 30.71169, "Longitude": 72.6538, "DistrictNa": "T.T Singh", "TehsilName": "Kamalia", "HFTypeName": "Tehsil Headquarter Hospital", "Category": "THQ", "Remarks": null }, "geometry": { "type": "Point", "coordinates": [ 72.653799999570367, 30.711690000293345 ] } },
{ "type": "Feature", "properties": { "OBJECTID": 26, "FullName": "Tehsil Headquarter Hospital, Pirmahal, T.T Singh", "Latitude": 30.769553, "Longitude": 72.433593, "DistrictNa": "T.T Singh", "TehsilName": "Pirmahal", "HFTypeName": "Tehsil Headquarter Hospital", "Category": "THQ", "Remarks": null }, "geometry": { "type": "Point", "coordinates": [ 72.433592999817165, 30.769553000370706 ] } },
{ "type": "Feature", "properties": { "OBJECTID": 27, "FullName": "Tehsil Headquarter Hospital, Noorpur Thal, Khushab", "Latitude": 31.886463, "Longitude": 71.894478, "DistrictNa": "Khushab", "TehsilName": "Noorpur Thal", "HFTypeName": "Tehsil Headquarter Hospital", "Category": "THQ", "Remarks": null }, "geometry": { "type": "Point", "coordinates": [ 71.894478000159609, 31.886463000067465 ] } },
{ "type": "Feature", "properties": { "OBJECTID": 28, "FullName": "Tehsil Headquarter Hospital, Quaidabad, Khushab", "Latitude": 32.334714, "Longitude": 71.888842, "DistrictNa": "Khushab", "TehsilName": "Quaidabad", "HFTypeName": "Tehsil Headquarter Hospital", "Category": "THQ", "Remarks": null }, "geometry": { "type": "Point", "coordinates": [ 71.888842000158263, 32.334714000350914 ] } },
{ "type": "Feature", "properties": { "OBJECTID": 29, "FullName": "Tehsil Headquarter Hospital Naushera , Naushera, Khushab", "Latitude": 32.5726658106, "Longitude": 72.156926393500001, "DistrictNa": "Khushab", "TehsilName": "Naushera", "HFTypeName": "Tehsil Headquarter Hospital", "Category": "THQ", "Remarks": null }, "geometry": { "type": "Point", "coordinates": [ 72.156926393838035, 32.572665810278977 ] } },
{ "type": "Feature", "properties": { "OBJECTID": 30, "FullName": "Tehsil Headquarter Hospital (THQ Level), Kala Bagh, Esa Khel, Mianwali", "Latitude": 32.962892, "Longitude": 71.550418, "DistrictNa": "Mianwali", "TehsilName": "Esa Khel", "HFTypeName": "Tehsil Headquarter Hospital", "Category": "THQ", "Remarks": null }, "geometry": { "type": "Point", "coordinates": [ 71.550417999591048, 32.962891999965905 ] } },
{ "type": "Feature", "properties": { "OBJECTID": 31, "FullName": "Tehsil Headquarter Hospital, Esa Khel, Mianwali", "Latitude": 32.676484857600002, "Longitude": 71.2738439707, "DistrictNa": "Mianwali", "TehsilName": "Esa Khel", "HFTypeName": "Tehsil Headquarter Hospital", "Category": "THQ", "Remarks": null }, "geometry": { "type": "Point", "coordinates": [ 71.273843970722737, 32.67648485759014 ] } },
{ "type": "Feature", "properties": { "OBJECTID": 32, "FullName": "Tehsil Headquarter Hospital, Piplan, Mianwali", "Latitude": 32.287111, "Longitude": 71.380938, "DistrictNa": "Mianwali", "TehsilName": "Piplan", "HFTypeName": "Tehsil Headquarter Hospital", "Category": "THQ", "Remarks": null }, "geometry": { "type": "Point", "coordinates": [ 71.38093799998876, 32.28711100037242 ] } },
{ "type": "Feature", "properties": { "OBJECTID": 33, "FullName": "Tehsil Headquarter Hospital, Kamoke, Gujranwala", "Latitude": 31.984361, "Longitude": 74.218305, "DistrictNa": "Gujranwala", "TehsilName": "Kamoke", "HFTypeName": "Tehsil Headquarter Hospital", "Category": "THQ", "Remarks": null }, "geometry": { "type": "Point", "coordinates": [ 74.218304999875897, 31.984361000060176 ] } },
{ "type": "Feature", "properties": { "OBJECTID": 34, "FullName": "Tehsil Headquarter Hospital, Nowshera Virkan, Gujranwala", "Latitude": 31.96354, "Longitude": 73.974967, "DistrictNa": "Gujranwala", "TehsilName": "Nowshera Virkan", "HFTypeName": "Tehsil Headquarter Hospital", "Category": "THQ", "Remarks": null }, "geometry": { "type": "Point", "coordinates": [ 73.974967000027107, 31.963540000370756 ] } },
{ "type": "Feature", "properties": { "OBJECTID": 35, "FullName": "Tehsil Headquarter Hospital, Wazirabad, Gujranwala", "Latitude": 32.444136, "Longitude": 74.114073, "DistrictNa": "Gujranwala", "TehsilName": "Wazirabad", "HFTypeName": "Tehsil Headquarter Hospital", "Category": "THQ", "Remarks": null }, "geometry": { "type": "Point", "coordinates": [ 74.11407300006897, 32.444136000276217 ] } },
{ "type": "Feature", "properties": { "OBJECTID": 36, "FullName": "Tehsil Headquarter Hospital, Shakargarh, Narowal", "Latitude": 32.264546, "Longitude": 75.161789, "DistrictNa": "Narowal", "TehsilName": "Shakargarh", "HFTypeName": "Tehsil Headquarter Hospital", "Category": "THQ", "Remarks": null }, "geometry": { "type": "Point", "coordinates": [ 75.161789265862012, 32.264545779963839 ] } },
{ "type": "Feature", "properties": { "OBJECTID": 37, "FullName": "Tehsil Headquarter Hospital, Zafarwal, Narowal", "Latitude": 32.337891, "Longitude": 74.888297, "DistrictNa": "Narowal", "TehsilName": "Zafarwal", "HFTypeName": "Tehsil Headquarter Hospital", "Category": "THQ", "Remarks": null }, "geometry": { "type": "Point", "coordinates": [ 74.888297424086886, 32.337891127973251 ] } },
{ "type": "Feature", "properties": { "OBJECTID": 38, "FullName": "Tehsil Headquarter Hospital, Sohawa, Jhelum", "Latitude": 33.132498, "Longitude": 73.408601, "DistrictNa": "Jhelum", "TehsilName": "Sohawa", "HFTypeName": "Tehsil Headquarter Hospital", "Category": "THQ", "Remarks": null }, "geometry": { "type": "Point", "coordinates": [ 73.408601043203646, 33.132498035955621 ] } },
{ "type": "Feature", "properties": { "OBJECTID": 39, "FullName": "Tehsil Headquarter Hospital, Sambrial, Sialkot", "Latitude": 32.471761, "Longitude": 74.337909, "DistrictNa": "Sialkot", "TehsilName": "Sambrial", "HFTypeName": "Tehsil Headquarter Hospital", "Category": "THQ", "Remarks": null }, "geometry": { "type": "Point", "coordinates": [ 74.337908599702189, 32.471761400068601 ] } },
{ "type": "Feature", "properties": { "OBJECTID": 40, "FullName": "Tehsil Headquarter Level Hospital Kotli Loharan, Sialkot", "Latitude": 32.588478, "Longitude": 74.504465, "DistrictNa": "Sialkot", "TehsilName": "Kotli Loharan", "HFTypeName": "Tehsil Headquarter Hospital", "Category": "THQ", "Remarks": null }, "geometry": { "type": "Point", "coordinates": [ 74.504464999560128, 32.588477999859833 ] } },
{ "type": "Feature", "properties": { "OBJECTID": 41, "FullName": "Tehsil Headquarter Hospital, Daska, Sialkot", "Latitude": 32.334416, "Longitude": 74.344869, "DistrictNa": "Sialkot", "TehsilName": "Daska", "HFTypeName": "Tehsil Headquarter Hospital", "Category": "THQ", "Remarks": null }, "geometry": { "type": "Point", "coordinates": [ 74.344868999804532, 32.334416000098372 ] } },
{ "type": "Feature", "properties": { "OBJECTID": 42, "FullName": "Tehsil Headquarter Hospital, Pasrur, Sialkot", "Latitude": 32.263793, "Longitude": 74.654391, "DistrictNa": "Sialkot", "TehsilName": "Pasrur", "HFTypeName": "Tehsil Headquarter Hospital", "Category": "THQ", "Remarks": null }, "geometry": { "type": "Point", "coordinates": [ 74.654391339388837, 32.263793363073319 ] } },
{ "type": "Feature", "properties": { "OBJECTID": 43, "FullName": "Tehsil Headquarter Hospital, Chawinda, Pasrur, Sialkot", "Latitude": 32.349769, "Longitude": 74.69734, "DistrictNa": "Sialkot", "TehsilName": "Pasrur", "HFTypeName": "Tehsil Headquarter Hospital", "Category": "THQ", "Remarks": null }, "geometry": { "type": "Point", "coordinates": [ 74.697339999741246, 32.349769000339165 ] } },
{ "type": "Feature", "properties": { "OBJECTID": 44, "FullName": "City Hospital (THQ Level) Mandi Bahauddin, Mandi Bahuddin", "Latitude": 32.58195, "Longitude": 73.49087, "DistrictNa": "Mandi Bahuddin", "TehsilName": "Mandi Bahuddin", "HFTypeName": "Tehsil Headquarter Hospital", "Category": "THQ", "Remarks": null }, "geometry": { "type": "Point", "coordinates": [ 73.49086999965084, 32.58195000009249 ] } },
{ "type": "Feature", "properties": { "OBJECTID": 45, "FullName": "Tehsil Headquarter Hospital, Malikwal, Mandi Bahuddin", "Latitude": 32.559003, "Longitude": 73.235896, "DistrictNa": "Mandi Bahuddin", "TehsilName": "Malikwal", "HFTypeName": "Tehsil Headquarter Hospital", "Category": "THQ", "Remarks": null }, "geometry": { "type": "Point", "coordinates": [ 73.235896000100354, 32.559003000388202 ] } },
{ "type": "Feature", "properties": { "OBJECTID": 46, "FullName": "Tehsil Headquarter / Maternity Hospital, Phalia, Mandi Bahuddin", "Latitude": 32.42471, "Longitude": 73.595266, "DistrictNa": "Mandi Bahuddin", "TehsilName": "Phalia", "HFTypeName": "Tehsil Headquarter Hospital", "Category": "THQ", "Remarks": null }, "geometry": { "type": "Point", "coordinates": [ 73.595265999826097, 32.424710000166442 ] } },
{ "type": "Feature", "properties": { "OBJECTID": 47, "FullName": "Tehsil Headquarter Hospital, Pind Dadan Khan, Jhelum", "Latitude": 32.590537, "Longitude": 73.04131, "DistrictNa": "Jhelum", "TehsilName": "Pind Dadan Khan", "HFTypeName": "Tehsil Headquarter Hospital", "Category": "THQ", "Remarks": null }, "geometry": { "type": "Point", "coordinates": [ 73.041309501932005, 32.590537372701647 ] } },
{ "type": "Feature", "properties": { "OBJECTID": 48, "FullName": "Tehsil Headquarter Hospital Chak 90/SB , Sargodha", "Latitude": 31.99787, "Longitude": 72.850904, "DistrictNa": "Sargodha", "TehsilName": "Sargodha", "HFTypeName": "Tehsil Headquarter Hospital", "Category": "THQ", "Remarks": null }, "geometry": { "type": "Point", "coordinates": [ 72.850904454676879, 31.997869855909187 ] } },
{ "type": "Feature", "properties": { "OBJECTID": 49, "FullName": "Tehsil Headquarter Hospital Bhagtanwala, Sargodha", "Latitude": 32.047326, "Longitude": 72.931484, "DistrictNa": "Sargodha", "TehsilName": "Sargodha", "HFTypeName": "Tehsil Headquarter Hospital", "Category": "THQ", "Remarks": null }, "geometry": { "type": "Point", "coordinates": [ 72.931484001385627, 32.047325713810721 ] } },
{ "type": "Feature", "properties": { "OBJECTID": 50, "FullName": "Tehsil Headquarter Hospital 46/SB, Sargodha", "Latitude": 31.880488, "Longitude": 72.776677, "DistrictNa": "Sargodha", "TehsilName": "Sargodha", "HFTypeName": "Tehsil Headquarter Hospital", "Category": "THQ", "Remarks": null }, "geometry": { "type": "Point", "coordinates": [ 72.776676726949461, 31.880488297397051 ] } },
{ "type": "Feature", "properties": { "OBJECTID": 51, "FullName": "Tehsil Headquarter Hospital, Bhalwal, Sargodha", "Latitude": 32.266237, "Longitude": 72.899912, "DistrictNa": "Sargodha", "TehsilName": "Bhalwal", "HFTypeName": "Tehsil Headquarter Hospital", "Category": "THQ", "Remarks": null }, "geometry": { "type": "Point", "coordinates": [ 72.899911567964523, 32.266236801287391 ] } },
{ "type": "Feature", "properties": { "OBJECTID": 52, "FullName": "Tehsil Headquarter Hospital, Sahiwal, Sargodha", "Latitude": 31.973627, "Longitude": 72.332412, "DistrictNa": "Sargodha", "TehsilName": "Sahiwal", "HFTypeName": "Tehsil Headquarter Hospital", "Category": "THQ", "Remarks": null }, "geometry": { "type": "Point", "coordinates": [ 72.332411993218955, 31.973627267684321 ] } },
{ "type": "Feature", "properties": { "OBJECTID": 53, "FullName": "Tehsil Headquarter Hospital, Shahpur, Sargodha", "Latitude": 32.27121, "Longitude": 72.473032, "DistrictNa": "Sargodha", "TehsilName": "Shahpur", "HFTypeName": "Tehsil Headquarter Hospital", "Category": "THQ", "Remarks": null }, "geometry": { "type": "Point", "coordinates": [ 72.473031758209117, 32.27121049736661 ] } },
{ "type": "Feature", "properties": { "OBJECTID": 54, "FullName": "Tehsil Headquarter Hospital, Sillanwali, Sargodha", "Latitude": 31.820018, "Longitude": 72.5386, "DistrictNa": "Sargodha", "TehsilName": "Sillanwali", "HFTypeName": "Tehsil Headquarter Hospital", "Category": "THQ", "Remarks": null }, "geometry": { "type": "Point", "coordinates": [ 72.538599886975248, 31.820017531383996 ] } },
{ "type": "Feature", "properties": { "OBJECTID": 55, "FullName": "Tehsil Headquarter Hospital, Kot Momin, Sargodha", "Latitude": 32.195867, "Longitude": 73.030557, "DistrictNa": "Sargodha", "TehsilName": "Kot Momin", "HFTypeName": "Tehsil Headquarter Hospital", "Category": "THQ", "Remarks": null }, "geometry": { "type": "Point", "coordinates": [ 73.030556622090501, 32.195867032937258 ] } },
{ "type": "Feature", "properties": { "OBJECTID": 56, "FullName": "Tehsil Headquarter Hospital, Bhera, Sargodha", "Latitude": 32.479701, "Longitude": 72.923059, "DistrictNa": "Sargodha", "TehsilName": "Bhera", "HFTypeName": "Tehsil Headquarter Hospital", "Category": "THQ", "Remarks": null }, "geometry": { "type": "Point", "coordinates": [ 72.923058750460996, 32.479701320159847 ] } },
{ "type": "Feature", "properties": { "OBJECTID": 57, "FullName": "Tehsil Headquarter Major Shabbir Sharif Shaheed Hospital, Kunjah, Gujrat", "Latitude": 32.531319, "Longitude": 73.964663, "DistrictNa": "Gujrat", "TehsilName": "Gujrat", "HFTypeName": "Tehsil Headquarter Hospital", "Category": "THQ", "Remarks": null }, "geometry": { "type": "Point", "coordinates": [ 73.964662999697737, 32.531318999871985 ] } },
{ "type": "Feature", "properties": { "OBJECTID": 58, "FullName": "Tehsil Headquarter Hospital, Kharian, Gujrat", "Latitude": 32.819102, "Longitude": 73.857463, "DistrictNa": "Gujrat", "TehsilName": "Kharian", "HFTypeName": "Tehsil Headquarter Hospital", "Category": "THQ", "Remarks": null }, "geometry": { "type": "Point", "coordinates": [ 73.857462999717711, 32.819101999757549 ] } },
{ "type": "Feature", "properties": { "OBJECTID": 59, "FullName": "Tehsil Headquarter Level Hospital Dinga / Government Maternity Hospital, Dinga, Kharian, Gujrat", "Latitude": 32.642968658199997, "Longitude": 73.722141544300001, "DistrictNa": "Gujrat", "TehsilName": "Kharian", "HFTypeName": "Tehsil Headquarter Hospital", "Category": "THQ", "Remarks": null }, "geometry": { "type": "Point", "coordinates": [ 73.722141544696569, 32.642968658277027 ] } },
{ "type": "Feature", "properties": { "OBJECTID": 60, "FullName": "Tehsil Headquarter Level Hospital / Government Maternity Hospital, Lala Musa, Kharian, Gujrat", "Latitude": 32.70036, "Longitude": 73.951706, "DistrictNa": "Gujrat", "TehsilName": "Kharian", "HFTypeName": "Tehsil Headquarter Hospital", "Category": "THQ", "Remarks": null }, "geometry": { "type": "Point", "coordinates": [ 73.951706000231809, 32.700359999914099 ] } },
{ "type": "Feature", "properties": { "OBJECTID": 61, "FullName": "Tehsil Headquarter Hospital, Sarai Alamgir, Gujrat", "Latitude": 32.886279, "Longitude": 73.758537, "DistrictNa": "Gujrat", "TehsilName": "Sarai Alamgir", "HFTypeName": "Tehsil Headquarter Hospital", "Category": "THQ", "Remarks": null }, "geometry": { "type": "Point", "coordinates": [ 73.758536999982596, 32.886279000375623 ] } },
{ "type": "Feature", "properties": { "OBJECTID": 62, "FullName": "Shaheed Uzair Mehmood Tehsil Headquarter Hospital, Jand, Attock", "Latitude": 33.423232, "Longitude": 72.007481, "DistrictNa": "Attock", "TehsilName": "Jand", "HFTypeName": "Tehsil Headquarter Hospital", "Category": "THQ", "Remarks": null }, "geometry": { "type": "Point", "coordinates": [ 72.007480999748395, 33.423232000156759 ] } },
{ "type": "Feature", "properties": { "OBJECTID": 63, "FullName": "Tehsil Headquarter Hospital, Fateh Jang, Attock", "Latitude": 33.559908, "Longitude": 72.630219, "DistrictNa": "Attock", "TehsilName": "Fateh Jang", "HFTypeName": "Tehsil Headquarter Hospital", "Category": "THQ", "Remarks": null }, "geometry": { "type": "Point", "coordinates": [ 72.630219000306681, 33.559907999654513 ] } },
{ "type": "Feature", "properties": { "OBJECTID": 64, "FullName": "Tehsil Headquarter Hospital, Pindi Gheb, Attock", "Latitude": 33.24620019, "Longitude": 72.27300107000001, "DistrictNa": "Attock", "TehsilName": "Pindi Gheb", "HFTypeName": "Tehsil Headquarter Hospital", "Category": "THQ", "Remarks": null }, "geometry": { "type": "Point", "coordinates": [ 72.273001070143323, 33.246200190086768 ] } },
{ "type": "Feature", "properties": { "OBJECTID": 65, "FullName": "Tehsil Headquarter Hospital, Hassanabdal, Attock", "Latitude": 33.822902, "Longitude": 72.683841, "DistrictNa": "Attock", "TehsilName": "Hassanabdal", "HFTypeName": "Tehsil Headquarter Hospital", "Category": "THQ", "Remarks": null }, "geometry": { "type": "Point", "coordinates": [ 72.683840999962229, 33.822902000327133 ] } },
{ "type": "Feature", "properties": { "OBJECTID": 66, "FullName": "Tehsil Headquarter Hospital Hazro, Hazro, Attock", "Latitude": 33.90002427, "Longitude": 72.48125048, "DistrictNa": "Attock", "TehsilName": "Hazro", "HFTypeName": "Tehsil Headquarter Hospital", "Category": "THQ", "Remarks": null }, "geometry": { "type": "Point", "coordinates": [ 72.48125047982586, 33.900024269804248 ] } },
{ "type": "Feature", "properties": { "OBJECTID": 67, "FullName": "Trauma Center-Tehsil Headquarter Hospital , Kallar Kahar, Chakwal", "Latitude": 32.778772, "Longitude": 72.713525, "DistrictNa": "Chakwal", "TehsilName": "Chakwal", "HFTypeName": "District Headquarter Hospital", "Category": "THQ", "Remarks": null }, "geometry": { "type": "Point", "coordinates": [ 72.713525000078732, 32.778771999728065 ] } },
{ "type": "Feature", "properties": { "OBJECTID": 68, "FullName": "Tehsil Headquarter Hospital, Talagang, Chakwal", "Latitude": 32.914508, "Longitude": 72.418683, "DistrictNa": "Chakwal", "TehsilName": "Chakwal", "HFTypeName": "District Headquarter Hospital", "Category": "THQ", "Remarks": null }, "geometry": { "type": "Point", "coordinates": [ 72.418683000220312, 32.914507999944306 ] } },
{ "type": "Feature", "properties": { "OBJECTID": 69, "FullName": "Tehsil Headquarter Hospital, Choa Saidan Shah, Chakwal", "Latitude": 32.717797, "Longitude": 72.953949, "DistrictNa": "Chakwal", "TehsilName": "Chakwal", "HFTypeName": "District Headquarter Hospital", "Category": "THQ", "Remarks": null }, "geometry": { "type": "Point", "coordinates": [ 72.953949000446073, 32.717797000031567 ] } },
{ "type": "Feature", "properties": { "OBJECTID": 70, "FullName": "Tehsil Headquarter Hospital, Darya Khan, Bhakkar", "Latitude": 31.794334, "Longitude": 71.107647, "DistrictNa": "Bhakkar", "TehsilName": "Darya Khan", "HFTypeName": "Tehsil Headquarter Hospital", "Category": "THQ", "Remarks": null }, "geometry": { "type": "Point", "coordinates": [ 71.107647000208942, 31.794333999914215 ] } },
{ "type": "Feature", "properties": { "OBJECTID": 71, "FullName": "Tehsil Headquarter Hospital, Kallurkot, Bhakkar", "Latitude": 32.14915483, "Longitude": 71.27414241, "DistrictNa": "Bhakkar", "TehsilName": "Kallurkot", "HFTypeName": "Tehsil Headquarter Hospital", "Category": "THQ", "Remarks": null }, "geometry": { "type": "Point", "coordinates": [ 71.274142409844387, 32.149154830331213 ] } },
{ "type": "Feature", "properties": { "OBJECTID": 72, "FullName": "Tehsil Headquarter Hospital, Mankera, Bhakkar", "Latitude": 31.395836, "Longitude": 71.449693, "DistrictNa": "Bhakkar", "TehsilName": "Mankera", "HFTypeName": "Tehsil Headquarter Hospital", "Category": "THQ", "Remarks": null }, "geometry": { "type": "Point", "coordinates": [ 71.449692999632305, 31.395835999831604 ] } },
{ "type": "Feature", "properties": { "OBJECTID": 73, "FullName": "Lahore Road, Pindi Bhattian", "Latitude": 31.896211, "Longitude": 73.277953, "DistrictNa": "Hafizabad", "TehsilName": "Pindi Bhattian", "HFTypeName": "Tehsil Headquarter Hospital", "Category": "THQ", "Remarks": null }, "geometry": { "type": "Point", "coordinates": [ 73.277952999731212, 31.89621099993775 ] } },
{ "type": "Feature", "properties": { "OBJECTID": 74, "FullName": "Tehsil Headquarter Hospital, Kahuta, Rawalpindi", "Latitude": 33.597062615900001, "Longitude": 73.385155857100003, "DistrictNa": "Rawalpindi", "TehsilName": "Kahuta", "HFTypeName": "Tehsil Headquarter Hospital", "Category": "THQ", "Remarks": null }, "geometry": { "type": "Point", "coordinates": [ 73.385155856857352, 33.597062615847108 ] } },
{ "type": "Feature", "properties": { "OBJECTID": 75, "FullName": "Tehsil Headquarter Hospital, Murree, Rawalpindi", "Latitude": 33.909056706299999, "Longitude": 73.395581822500006, "DistrictNa": "Rawalpindi", "TehsilName": "Murree", "HFTypeName": "Tehsil Headquarter Hospital", "Category": "THQ", "Remarks": null }, "geometry": { "type": "Point", "coordinates": [ 73.395581822343274, 33.909056706102149 ] } },
{ "type": "Feature", "properties": { "OBJECTID": 76, "FullName": "Tehsil Headquarter Hospital, Kotli Sattian, Rawal*", "Latitude": 33.793230000800001, "Longitude": 73.519683887200003, "DistrictNa": "Rawalpindi", "TehsilName": "Kotli Sattian", "HFTypeName": "Tehsil Headquarter Hospital", "Category": "THQ", "Remarks": null }, "geometry": { "type": "Point", "coordinates": [ 73.519683886802, 33.79323000076397 ] } },
{ "type": "Feature", "properties": { "OBJECTID": 77, "FullName": "Tehsil Headquarter Hospital, Gujar Khan, Rawalpin*", "Latitude": 33.254119111999998, "Longitude": 73.308637354599995, "DistrictNa": "Rawalpindi", "TehsilName": "Gujar Khan", "HFTypeName": "Tehsil Headquarter Hospital", "Category": "THQ", "Remarks": null }, "geometry": { "type": "Point", "coordinates": [ 73.308637354430402, 33.254119111907528 ] } },
{ "type": "Feature", "properties": { "OBJECTID": 78, "FullName": "Tehsil Headquarter Hospital, Kallar Syedan, Rawal*", "Latitude": 33.420893511700001, "Longitude": 73.368494287100006, "DistrictNa": "Rawalpindi", "TehsilName": "Kallar Syedan", "HFTypeName": "Tehsil Headquarter Hospital", "Category": "THQ", "Remarks": null }, "geometry": { "type": "Point", "coordinates": [ 73.368494287281578, 33.420893511926067 ] } },
{ "type": "Feature", "properties": { "OBJECTID": 79, "FullName": "Tehsil Headquarter Hospital, Taxila, Rawalpindi", "Latitude": 33.746148593400001, "Longitude": 72.816994989299999, "DistrictNa": "Rawalpindi", "TehsilName": "Taxila", "HFTypeName": "Tehsil Headquarter Hospital", "Category": "THQ", "Remarks": null }, "geometry": { "type": "Point", "coordinates": [ 72.816994989027592, 33.746148593183079 ] } },
{ "type": "Feature", "properties": { "OBJECTID": 80, "FullName": "Tehsil Headquarter Hospital, Minchanabad, Bahawalnagar", "Latitude": 30.162368, "Longitude": 73.560339, "DistrictNa": "Bahawalnagar", "TehsilName": "Minchanabad", "HFTypeName": "Tehsil Headquarter Hospital", "Category": "THQ", "Remarks": null }, "geometry": { "type": "Point", "coordinates": [ 73.560338999845044, 30.162368000283038 ] } },
{ "type": "Feature", "properties": { "OBJECTID": 81, "FullName": "Tehsil Headquarter Hospital, Chishtian, Bahawalnagar", "Latitude": 29.801053, "Longitude": 72.865452, "DistrictNa": "Bahawalnagar", "TehsilName": "Chishtian", "HFTypeName": "Tehsil Headquarter Hospital", "Category": "THQ", "Remarks": null }, "geometry": { "type": "Point", "coordinates": [ 72.865451999610173, 29.801052999896058 ] } },
{ "type": "Feature", "properties": { "OBJECTID": 82, "FullName": "Tehsil Headquarter Hospital, Haroonabad, Bahawalnagar", "Latitude": 29.611614, "Longitude": 73.142713, "DistrictNa": "Bahawalnagar", "TehsilName": "Haroonabad", "HFTypeName": "Tehsil Headquarter Hospital", "Category": "THQ", "Remarks": null }, "geometry": { "type": "Point", "coordinates": [ 73.142712999905086, 29.611613999886231 ] } },
{ "type": "Feature", "properties": { "OBJECTID": 83, "FullName": "Tehsil Headquarter Hospital, Fortabbas, Bahawalnagar", "Latitude": 29.194676, "Longitude": 72.873307, "DistrictNa": "Bahawalnagar", "TehsilName": "Fortabbas", "HFTypeName": "Tehsil Headquarter Hospital", "Category": "THQ", "Remarks": null }, "geometry": { "type": "Point", "coordinates": [ 72.87330700031788, 29.194676000197319 ] } },
{ "type": "Feature", "properties": { "OBJECTID": 84, "FullName": "Tehsil Headquarter Hospital, Jampur, Rajanpur", "Latitude": 29.643231, "Longitude": 70.591182, "DistrictNa": "Rajanpur", "TehsilName": "Jampur", "HFTypeName": "Tehsil Headquarter Hospital", "Category": "THQ", "Remarks": null }, "geometry": { "type": "Point", "coordinates": [ 70.591182000049344, 29.643231000110632 ] } },
{ "type": "Feature", "properties": { "OBJECTID": 85, "FullName": "Tehsil Headquarter Hospital, Rojhan, Rajanpur", "Latitude": 28.686093, "Longitude": 69.956658, "DistrictNa": "Rajanpur", "TehsilName": "Rojhan", "HFTypeName": "Tehsil Headquarter Hospital", "Category": "THQ", "Remarks": null }, "geometry": { "type": "Point", "coordinates": [ 69.956658000066682, 28.686093000191875 ] } },
{ "type": "Feature", "properties": { "OBJECTID": 86, "FullName": "Tehsil Headquarter Hospital Chaubara, Chaubara, Layyah", "Latitude": 30.905257, "Longitude": 71.528661, "DistrictNa": "Layyah", "TehsilName": "Chaubara", "HFTypeName": "Tehsil Headquarter Hospital", "Category": "THQ", "Remarks": null }, "geometry": { "type": "Point", "coordinates": [ 71.528660999905298, 30.905257000010579 ] } },
{ "type": "Feature", "properties": { "OBJECTID": 87, "FullName": "Tehsil Headquarter Level Hospital, Fatehpur, Karor Lal-E-Son, Layyah", "Latitude": 31.163457218800001, "Longitude": 71.208032770800003, "DistrictNa": "Layyah", "TehsilName": "Karor Lal-E-Son", "HFTypeName": "Tehsil Headquarter Hospital", "Category": "THQ", "Remarks": null }, "geometry": { "type": "Point", "coordinates": [ 71.208032770496004, 31.163457218475912 ] } },
{ "type": "Feature", "properties": { "OBJECTID": 88, "FullName": "Tehsil Headquarter Hospital, Karor Lal-E-Son, Layyah", "Latitude": 31.221723, "Longitude": 70.967925, "DistrictNa": "Layyah", "TehsilName": "Karor Lal-E-Son", "HFTypeName": "Tehsil Headquarter Hospital", "Category": "THQ", "Remarks": null }, "geometry": { "type": "Point", "coordinates": [ 70.967924999639081, 31.22172299971669 ] } },
{ "type": "Feature", "properties": { "OBJECTID": 89, "FullName": "Tehsil Headquarter Level Hospital, Kot Sultan, Layyah", "Latitude": 30.777523, "Longitude": 70.931923, "DistrictNa": "Layyah", "TehsilName": "Layyah", "HFTypeName": "Tehsil Headquarter Hospital", "Category": "THQ", "Remarks": null }, "geometry": { "type": "Point", "coordinates": [ 70.931923000446147, 30.777523000086433 ] } },
{ "type": "Feature", "properties": { "OBJECTID": 90, "FullName": "Tehsil Headquarter Level Hospital, Chowk Azam, Layyah", "Latitude": 30.953954, "Longitude": 71.21425, "DistrictNa": "Layyah", "TehsilName": "Layyah", "HFTypeName": "Tehsil Headquarter Hospital", "Category": "THQ", "Remarks": null }, "geometry": { "type": "Point", "coordinates": [ 71.214249999637843, 30.95395400007709 ] } },
{ "type": "Feature", "properties": { "OBJECTID": 91, "FullName": "Tehsil Headquarter Hospital, Thal (Mian Nawaz Sharif) Hospital, Layyah", "Latitude": 30.955449835300001, "Longitude": 70.939453916800005, "DistrictNa": "Layyah", "TehsilName": "Layyah", "HFTypeName": "Tehsil Headquarter Hospital", "Category": "THQ", "Remarks": null }, "geometry": { "type": "Point", "coordinates": [ 70.939453916964737, 30.95544983524178 ] } },
{ "type": "Feature", "properties": { "OBJECTID": 92, "FullName": "Tehsil Headquarter Hospital, AliPur, Muzaffargarh", "Latitude": 29.38809, "Longitude": 70.915671, "DistrictNa": "Muzaffargarh", "TehsilName": "AliPur", "HFTypeName": "Tehsil Headquarter Hospital", "Category": "THQ", "Remarks": null }, "geometry": { "type": "Point", "coordinates": [ 70.915671000116618, 29.388090000053523 ] } },
{ "type": "Feature", "properties": { "OBJECTID": 93, "FullName": "Tehsil Headquarter Hospital, Kot Adu, Muzaffargarh", "Latitude": 30.462135, "Longitude": 70.966672, "DistrictNa": "Muzaffargarh", "TehsilName": "Kot Adu", "HFTypeName": "Tehsil Headquarter Hospital", "Category": "THQ", "Remarks": null }, "geometry": { "type": "Point", "coordinates": [ 70.966672000312599, 30.462134999730495 ] } },
{ "type": "Feature", "properties": { "OBJECTID": 94, "FullName": "50 Bedded Tehsil Headquarter Level Hospital, Chowk Sarwar Shaheed, Kot Adu, Muzaffargarh", "Latitude": 30.581179, "Longitude": 71.230588, "DistrictNa": "Muzaffargarh", "TehsilName": "Kot Adu", "HFTypeName": "Tehsil Headquarter Hospital", "Category": "THQ", "Remarks": null }, "geometry": { "type": "Point", "coordinates": [ 71.230588000336013, 30.581179000010877 ] } },
{ "type": "Feature", "properties": { "OBJECTID": 95, "FullName": "Tehsil Headquarter Hospital, Jatoi, Muzaffargarh", "Latitude": 29.513035, "Longitude": 70.854723, "DistrictNa": "Muzaffargarh", "TehsilName": "Jatoi", "HFTypeName": "Tehsil Headquarter Hospital", "Category": "THQ", "Remarks": null }, "geometry": { "type": "Point", "coordinates": [ 70.854722999866624, 29.513034999965328 ] } },
{ "type": "Feature", "properties": { "OBJECTID": 96, "FullName": "Tehsil Head Quarter Hospital Yazman, Yazman, Bahawalpur", "Latitude": 29.134957, "Longitude": 71.744715, "DistrictNa": "Bahawalpur", "TehsilName": "Yazman", "HFTypeName": "Tehsil Headquarter Hospital", "Category": "THQ", "Remarks": null }, "geometry": { "type": "Point", "coordinates": [ 71.744714999697521, 29.134956999965652 ] } },
{ "type": "Feature", "properties": { "OBJECTID": 97, "FullName": "Tehsil Headquarter Hospital, Hasilpur, Bahawalpur", "Latitude": 29.693973, "Longitude": 72.555422, "DistrictNa": "Bahawalpur", "TehsilName": "Hasilpur", "HFTypeName": "Tehsil Headquarter Hospital", "Category": "THQ", "Remarks": null }, "geometry": { "type": "Point", "coordinates": [ 72.555421999925386, 29.693973000053973 ] } },
{ "type": "Feature", "properties": { "OBJECTID": 98, "FullName": "Tehsil Headquarter Hospital, Ahmedpur East, Bahawalpur", "Latitude": 29.136227, "Longitude": 71.263421, "DistrictNa": "Bahawalpur", "TehsilName": "Ahmedpur East", "HFTypeName": "Tehsil Headquarter Hospital", "Category": "THQ", "Remarks": null }, "geometry": { "type": "Point", "coordinates": [ 71.263420999979246, 29.136227000076019 ] } },
{ "type": "Feature", "properties": { "OBJECTID": 99, "FullName": "Tehsil Headquarter Hospital, Khairpur Tamewali, Bahawalpur", "Latitude": 29.573795, "Longitude": 72.239382, "DistrictNa": "Bahawalpur", "TehsilName": "Khairpur Tamewali", "HFTypeName": "Tehsil Headquarter Hospital", "Category": "THQ", "Remarks": null }, "geometry": { "type": "Point", "coordinates": [ 72.239382000079274, 29.573794999639574 ] } },
{ "type": "Feature", "properties": { "OBJECTID": 100, "FullName": "Tehsil Headquarter Hospital, Taunsa Sharif, Dera Ghazi Khan", "Latitude": 30.711425, "Longitude": 70.65265556, "DistrictNa": "Dera Ghazi Khan", "TehsilName": "Taunsa Sharif", "HFTypeName": "Tehsil Headquarter Hospital", "Category": "THQ", "Remarks": null }, "geometry": { "type": "Point", "coordinates": [ 70.652655559606444, 30.711424999764006 ] } },
{ "type": "Feature", "properties": { "OBJECTID": 101, "FullName": "Tehsil Headquarter Level Hospital, Kot Chutta, Kot Chutta, Dera Ghazi Khan", "Latitude": 29.878489, "Longitude": 70.64533, "DistrictNa": "Dera Ghazi Khan", "TehsilName": "Kot Chutta", "HFTypeName": "Tehsil Headquarter Hospital", "Category": "THQ", "Remarks": null }, "geometry": { "type": "Point", "coordinates": [ 70.645329999679802, 29.878488999667638 ] } },
{ "type": "Feature", "properties": { "OBJECTID": 102, "FullName": "Tehsil Headquarter Hospital Mian Wali Qureshian, Rahim Yar Khan", "Latitude": 28.655938, "Longitude": 70.385888, "DistrictNa": "Rahim Yar Khan", "TehsilName": "Rahim Yar Khan", "HFTypeName": "Tehsil Headquarter Hospital", "Category": "THQ", "Remarks": null }, "geometry": { "type": "Point", "coordinates": [ 70.38588800003123, 28.655937999938772 ] } },
{ "type": "Feature", "properties": { "OBJECTID": 103, "FullName": "Tehsil Headquarter Hospital, Khanpur, Rahim Yar Khan", "Latitude": 28.647559, "Longitude": 70.661058, "DistrictNa": "Rahim Yar Khan", "TehsilName": "Khanpur", "HFTypeName": "Tehsil Headquarter Hospital", "Category": "THQ", "Remarks": null }, "geometry": { "type": "Point", "coordinates": [ 70.661058000126673, 28.647559000247725 ] } },
{ "type": "Feature", "properties": { "OBJECTID": 104, "FullName": "Tehsil Headquarter Hospital, Liaqatpur, Rahim Yar Khan", "Latitude": 28.931244, "Longitude": 70.951061, "DistrictNa": "Rahim Yar Khan", "TehsilName": "Liaqatpur", "HFTypeName": "Tehsil Headquarter Hospital", "Category": "THQ", "Remarks": null }, "geometry": { "type": "Point", "coordinates": [ 70.951060999865319, 28.931244000010622 ] } },
{ "type": "Feature", "properties": { "OBJECTID": 105, "FullName": "Tehsil Headquarter Hospital, Sadiqabad, Rahim Yar Khan", "Latitude": 28.311783, "Longitude": 70.127907, "DistrictNa": "Rahim Yar Khan", "TehsilName": "Sadiqabad", "HFTypeName": "Tehsil Headquarter Hospital", "Category": "THQ", "Remarks": null }, "geometry": { "type": "Point", "coordinates": [ 70.127907000307857, 28.311783000385219 ] } },
{ "type": "Feature", "properties": { "OBJECTID": 106, "FullName": "Tehsil Headquarter Hospital, Shuja Abad, Multan", "Latitude": 29.880247, "Longitude": 71.310262, "DistrictNa": "Multan", "TehsilName": "Shuja Abad", "HFTypeName": "Tehsil Headquarter Hospital", "Category": "THQ", "Remarks": null }, "geometry": { "type": "Point", "coordinates": [ 71.310261999891452, 29.880246999799226 ] } },
{ "type": "Feature", "properties": { "OBJECTID": 107, "FullName": "Tehsil Headquarter Hospital, Mushtaq Lang, Jalalpur Pirwala, Multan", "Latitude": 29.514702, "Longitude": 71.226825, "DistrictNa": "Multan", "TehsilName": "Jalalpur Pirwala", "HFTypeName": "Tehsil Headquarter Hospital", "Category": "THQ", "Remarks": null }, "geometry": { "type": "Point", "coordinates": [ 71.22318442422187, 29.51762873697669 ] } },
{ "type": "Feature", "properties": { "OBJECTID": 108, "FullName": "Tehsil Headquarter Level Hospital , Lodhran", "Latitude": 29.496098, "Longitude": 71.638389, "DistrictNa": "Lodhran", "TehsilName": "Lodhran", "HFTypeName": "Tehsil Headquarter Hospital", "Category": "THQ", "Remarks": null }, "geometry": { "type": "Point", "coordinates": [ 71.638388530106624, 29.496098394325486 ] } },
{ "type": "Feature", "properties": { "OBJECTID": 109, "FullName": "Tehsil Headquarter Hospital, Kahror Pacca, Lodhran", "Latitude": 29.618039, "Longitude": 71.914506, "DistrictNa": "Lodhran", "TehsilName": "Kahror Pacca", "HFTypeName": "Tehsil Headquarter Hospital", "Category": "THQ", "Remarks": null }, "geometry": { "type": "Point", "coordinates": [ 71.914505560383361, 29.618039053359666 ] } },
{ "type": "Feature", "properties": { "OBJECTID": 110, "FullName": "Tehsil Headquarter Hospital, Malik Tayab Awan, Duniapur, Lodhran", "Latitude": 29.814648, "Longitude": 71.728032, "DistrictNa": "Lodhran", "TehsilName": "Duniapur", "HFTypeName": "Tehsil Headquarter Hospital", "Category": "THQ", "Remarks": null }, "geometry": { "type": "Point", "coordinates": [ 71.728032000176711, 29.814648000005263 ] } },
{ "type": "Feature", "properties": { "OBJECTID": 111, "FullName": "Tehsil Headquarter Hospital, Kabirwala, Khanewal", "Latitude": 30.401836141299999, "Longitude": 71.856847488699998, "DistrictNa": "Khanewal", "TehsilName": "Kabirwala", "HFTypeName": "Tehsil Headquarter Hospital", "Category": "THQ", "Remarks": null }, "geometry": { "type": "Point", "coordinates": [ 71.85684748882062, 30.401836140925241 ] } },
{ "type": "Feature", "properties": { "OBJECTID": 112, "FullName": "Olympian Arshad Nadeem THQ Hospital, Mian Channu, Khanewal", "Latitude": 30.4406616, "Longitude": 72.3601107, "DistrictNa": "Khanewal", "TehsilName": "Mian Channu", "HFTypeName": "Tehsil Headquarter Hospital", "Category": "THQ", "Remarks": null }, "geometry": { "type": "Point", "coordinates": [ 72.360110700348571, 30.440661600352598 ] } },
{ "type": "Feature", "properties": { "OBJECTID": 113, "FullName": "Tehsil Headquarter Hospital, Jahanian, Khanewal", "Latitude": 30.036011, "Longitude": 71.822514, "DistrictNa": "Khanewal", "TehsilName": "Jahanian", "HFTypeName": "Tehsil Headquarter Hospital", "Category": "THQ", "Remarks": null }, "geometry": { "type": "Point", "coordinates": [ 71.822514000021158, 30.036011000007704 ] } },
{ "type": "Feature", "properties": { "OBJECTID": 114, "FullName": "Tehsil Headquarter Hospital, Burewala, Vehari", "Latitude": 30.165872, "Longitude": 72.683518, "DistrictNa": "Vehari", "TehsilName": "Burewala", "HFTypeName": "Tehsil Headquarter Hospital", "Category": "THQ", "Remarks": null }, "geometry": { "type": "Point", "coordinates": [ 72.68351784297414, 30.165872096220312 ] } },
{ "type": "Feature", "properties": { "OBJECTID": 115, "FullName": "Tehsil Headquarter Hospital, Mailsi, Vehari", "Latitude": 29.803007, "Longitude": 72.177523, "DistrictNa": "Vehari", "TehsilName": "Mailsi", "HFTypeName": "Tehsil Headquarter Hospital", "Category": "THQ", "Remarks": null }, "geometry": { "type": "Point", "coordinates": [ 72.17752281842337, 29.803006792329654 ] } }
]
}
